STARS (KUKAI)           
1 33498U 09002G   26160.39190800  .00003428  00000+0  31351-3 0  9995
2 33498  98.1538 107.3824 0008237 184.3259 175.7891 14.95694106937316
KKS-1 (KISEKI)          
1 33499U 09002H   26160.49794213  .00001297  00000+0  16601-3 0  9998
2 33499  98.1192  82.8184 0006991 324.8419  35.2332 14.83104394935054
UK-DMC 2                
1 35683U 09041C   26159.88757111  .00001104  00000+0  16742-3 0  9998
2 35683  97.8828 295.0575 0001296  72.8745 287.2607 14.76019080905342
OCEANSAT-2              
1 35931U 09051A   26160.47908381  .00000074  00000+0  76170-4 0  9996
2 35931  98.2324 148.0994 0014694 259.6173 100.3337 13.99664333878257
SWISSCUBE               
1 35932U 09051B   26160.23220341  .00000884  00000+0  18430-3 0  9997
2 35932  98.4042  67.9819 0005536 231.7827 128.2876 14.62466323887992
BEESAT-1                
1 35933U 09051C   26160.51132019  .00000778  00000+0  16607-3 0  9999
2 35933  98.3972  67.9173 0003918 247.5852 112.4933 14.61708260888068
ITUPSAT1                
1 35935U 09051E   26160.49549253  .00000698  00000+0  15408-3 0  9999
2 35935  98.4055  67.1012 0006086 262.7226  97.3282 14.60429234887618
DMSP 5D-3 F18 (USA 210) 
1 35951U 09057A   26160.50373889  .00000248  00000+0  15149-3 0  9998
2 35951  98.9034 141.2897 0009862 274.0704  85.9341 14.14892454858507
PROBA-2                 
1 36037U 09059B   26160.46882933  .00000179  00000+0  52340-4 0  9994
2 36037  98.2450 343.9288 0012211 308.3568  51.6532 14.54859132880400
YAOGAN-7                
1 36110U 09069A   26160.43873020  .00000464  00000+0  71254-4 0  9993
2 36110  98.0082  46.3534 0025931  65.6607 294.7307 14.78002011888487
XIWANG-1 (HOPE-1)       
1 36122U 09072B   26160.49197213 -.00000359  00000+0 -82351-3 0  9993
2 36122 100.4023 114.4470 0006808 251.1258 108.9117 13.16437659791990
COSMOS 2463             
1 36519U 10017A   26160.52178637  .00000041  00000+0  28480-4 0  9997
2 36519  82.9608 255.3373 0036963 149.5587 226.7522 13.71665234806887
CARTOSAT-2B             
1 36795U 10035A   26160.48995868  .00000375  00000+0  58372-4 0  9994
2 36795  97.9955 211.0887 0010555 210.0487 150.0119 14.78650864858716
TISAT 1                 
1 36799U 10035E   26159.81960297  .00020138  00000+0  66607-3 0  9999
2 36799  98.0700 105.6282 0000185 170.3248 189.7995 15.31390446866423
YAOGAN-10               
1 36834U 10038A   26160.54750488  .00001358  00000+0  16428-3 0  9992
2 36834  97.8983 184.0131 0001661  87.8519  30.9361 14.85325741856078
SHIJIAN-6 04B (SJ-6 04B)
1 37180U 10051B   26160.48146931  .00001083  00000+0  93726-4 0  9999
2 37180  97.8687 165.8133 0009069 338.6635  21.4208 14.99297414854522
FENGYUN 3B              
1 37214U 10059A   26160.53359421  .00000048  00000+0  48276-4 0  9991
2 37214  98.9624 206.5157 0021460 206.0309 260.2635 14.14840333806342
COSMO-SKYMED 4          
1 37216U 10060A   26159.39731509  .00000510  00000+0  70656-4 0  9999
2 37216  97.8890 343.1246 0001413  83.8256 276.3118 14.82162251843269
O/OREOS (USA 219)       
1 37224U 10062C   26160.22668022  .00002113  00000+0  20525-3 0  9993
2 37224  71.9704  98.3700 0012386  80.4823 279.7746 14.93710062115451
RESOURCESAT-2           
1 37387U 11015A   26160.48768213  .00000050  00000+0  42990-4 0  9992
2 37387  98.7644 227.9824 0010130 280.3579  79.6456 14.21604772785080
YOUTHSAT                
1 37388U 11015B   26160.51647309  .00000180  00000+0  93470-4 0  9992
2 37388  98.3678 134.9166 0014703   9.7334 103.9266 14.25627192786549
APRIZESAT 6             
1 37793U 11044F   26160.51308750  .00000683  00000+0  10350-3 0  9991
2 37793  98.2371  70.8559 0044382 109.8469  68.2818 14.76904612796019
JUGNU                   
1 37839U 11058B   26160.26883713  .00000405  00000+0  72297-4 0  9997
2 37839  19.9621 356.5333 0018550 349.0526 166.6651 14.13774628757908
SRMSAT                  
1 37841U 11058D   26160.53493751  .00000362  00000+0  52397-4 0  9990
2 37841  19.9710 105.7844 0011936 119.8301  40.8059 14.11573956756730
SUOMI NPP               
1 37849U 11061A   26160.51658647  .00000064  00000+0  51240-4 0  9992
2 37849  98.7953 101.4451 0001959  24.0368 336.0899 14.19515792757356
YAOGAN-12               
1 37875U 11066B   26160.53093833  .00006319  00000+0  24445-3 0  9993
2 37875  97.1152 199.4601 0008087 248.7806 111.2570 15.26507752810876
